[
  {
    "OBJECT_NAME": "CYGFM04",
    "OBJECT_ID": "2016-078B",
    "EPOCH": "2025-06-14T06:34:03.099936",
    "MEAN_MOTION": 15.42681262,
    "ECCENTRICITY": 0.0009857,
    "INCLINATION": 34.9353,
    "RA_OF_ASC_NODE": 124.2173,
    "ARG_OF_PERICENTER": 304.4039,
    "MEAN_ANOMALY": 55.5748,
    "EPHEMERIS_TYPE": 0,
    "CLASSIFICATION_TYPE": "U",
    "NORAD_CAT_ID": 41885,
    "ELEMENT_SET_NO": 999,
    "REV_AT_EPOCH": 47184,
    "BSTAR": 0.00035153,
    "MEAN_MOTION_DOT": 0.00015793,
    "MEAN_MOTION_DDOT": 0
  },
  {
    "OBJECT_NAME": "CYGFM02",
    "OBJECT_ID": "2016-078C",
    "EPOCH": "2025-06-14T06:37:49.915488",
    "MEAN_MOTION": 15.43516894,
    "ECCENTRICITY": 0.001165,
    "INCLINATION": 34.944,
    "RA_OF_ASC_NODE": 124.4402,
    "ARG_OF_PERICENTER": 300.3395,
    "MEAN_ANOMALY": 59.6173,
    "EPHEMERIS_TYPE": 0,
    "CLASSIFICATION_TYPE": "U",
    "NORAD_CAT_ID": 41886,
    "ELEMENT_SET_NO": 999,
    "REV_AT_EPOCH": 47195,
    "BSTAR": 0.00035594,
    "MEAN_MOTION_DOT": 0.00016464,
    "MEAN_MOTION_DDOT": 0
  },
  {
    "OBJECT_NAME": "CYGFM01",
    "OBJECT_ID": "2016-078D",
    "EPOCH": "2025-06-14T08:50:51.687456",
    "MEAN_MOTION": 15.41139964,
    "ECCENTRICITY": 0.0010477,
    "INCLINATION": 34.9431,
    "RA_OF_ASC_NODE": 148.0465,
    "ARG_OF_PERICENTER": 274.2578,
    "MEAN_ANOMALY": 85.6944,
    "EPHEMERIS_TYPE": 0,
    "CLASSIFICATION_TYPE": "U",
    "NORAD_CAT_ID": 41887,
    "ELEMENT_SET_NO": 999,
    "REV_AT_EPOCH": 47165,
    "BSTAR": 0.00032217,
    "MEAN_MOTION_DOT": 0.00013739,
    "MEAN_MOTION_DDOT": 0
  },
  {
    "OBJECT_NAME": "CYGFM08",
    "OBJECT_ID": "2016-078E",
    "EPOCH": "2025-06-14T14:38:55.667328",
    "MEAN_MOTION": 15.4206602,
    "ECCENTRICITY": 0.0012164,
    "INCLINATION": 34.9462,
    "RA_OF_ASC_NODE": 131.2618,
    "ARG_OF_PERICENTER": 298.5624,
    "MEAN_ANOMALY": 61.3871,
    "EPHEMERIS_TYPE": 0,
    "CLASSIFICATION_TYPE": "U",
    "NORAD_CAT_ID": 41888,
    "ELEMENT_SET_NO": 999,
    "REV_AT_EPOCH": 47190,
    "BSTAR": 0.00030668,
    "MEAN_MOTION_DOT": 0.00013498,
    "MEAN_MOTION_DDOT": 0
  },
  {
    "OBJECT_NAME": "CYGFM07",
    "OBJECT_ID": "2016-078G",
    "EPOCH": "2025-06-14T07:02:25.319040",
    "MEAN_MOTION": 15.42627624,
    "ECCENTRICITY": 0.0010052,
    "INCLINATION": 34.9481,
    "RA_OF_ASC_NODE": 123.3191,
    "ARG_OF_PERICENTER": 310.786,
    "MEAN_ANOMALY": 49.1987,
    "EPHEMERIS_TYPE": 0,
    "CLASSIFICATION_TYPE": "U",
    "NORAD_CAT_ID": 41890,
    "ELEMENT_SET_NO": 999,
    "REV_AT_EPOCH": 47186,
    "BSTAR": 0.00035066,
    "MEAN_MOTION_DOT": 0.00015725,
    "MEAN_MOTION_DDOT": 0
  },
  {
    "OBJECT_NAME": "CYGFM03",
    "OBJECT_ID": "2016-078H",
    "EPOCH": "2025-06-14T07:11:15.764928",
    "MEAN_MOTION": 15.42390592,
    "ECCENTRICITY": 0.0009391,
    "INCLINATION": 34.9434,
    "RA_OF_ASC_NODE": 124.907,
    "ARG_OF_PERICENTER": 296.6579,
    "MEAN_ANOMALY": 63.3178,
    "EPHEMERIS_TYPE": 0,
    "CLASSIFICATION_TYPE": "U",
    "NORAD_CAT_ID": 41891,
    "ELEMENT_SET_NO": 999,
    "REV_AT_EPOCH": 47184,
    "BSTAR": 0.00033923,
    "MEAN_MOTION_DOT": 0.00015086,
    "MEAN_MOTION_DDOT": 0
  },
  {
    "OBJECT_NAME": "FENGYUN 3D",
    "OBJECT_ID": "2017-072A",
    "EPOCH": "2025-06-14T17:56:12.046560",
    "MEAN_MOTION": 14.19631504,
    "ECCENTRICITY": 0.0002251,
    "INCLINATION": 98.9624,
    "RA_OF_ASC_NODE": 129.6302,
    "ARG_OF_PERICENTER": 48.4603,
    "MEAN_ANOMALY": 311.6765,
    "EPHEMERIS_TYPE": 0,
    "CLASSIFICATION_TYPE": "U",
    "NORAD_CAT_ID": 43010,
    "ELEMENT_SET_NO": 999,
    "REV_AT_EPOCH": 39285,
    "BSTAR": 5.4959e-05,
    "MEAN_MOTION_DOT": 7e-07,
    "MEAN_MOTION_DDOT": 0
  },
  {
    "OBJECT_NAME": "NOAA 20 (JPSS-1)",
    "OBJECT_ID": "2017-073A",
    "EPOCH": "2025-06-14T20:14:43.002528",
    "MEAN_MOTION": 14.19544212,
    "ECCENTRICITY": 1.92e-05,
    "INCLINATION": 98.7418,
    "RA_OF_ASC_NODE": 104.3525,
    "ARG_OF_PERICENTER": 21.1348,
    "MEAN_ANOMALY": 338.9836,
    "EPHEMERIS_TYPE": 0,
    "CLASSIFICATION_TYPE": "U",
    "NORAD_CAT_ID": 43013,
    "ELEMENT_SET_NO": 999,
    "REV_AT_EPOCH": 39235,
    "BSTAR": 5.2571e-05,
    "MEAN_MOTION_DOT": 6.7e-07,
    "MEAN_MOTION_DDOT": 0
  },
  {
    "OBJECT_NAME": "GOES 17",
    "OBJECT_ID": "2018-022A",
    "EPOCH": "2025-06-13T20:13:25.125888",
    "MEAN_MOTION": 1.00322278,
    "ECCENTRICITY": 0.0002223,
    "INCLINATION": 0.0279,
    "RA_OF_ASC_NODE": 213.9012,
    "ARG_OF_PERICENTER": 259.7735,
    "MEAN_ANOMALY": 347.8196,
    "EPHEMERIS_TYPE": 0,
    "CLASSIFICATION_TYPE": "U",
    "NORAD_CAT_ID": 43226,
    "ELEMENT_SET_NO": 999,
    "REV_AT_EPOCH": 2673,
    "BSTAR": 0,
    "MEAN_MOTION_DOT": -8.6e-07,
    "MEAN_MOTION_DDOT": 0
  },
  {
    "OBJECT_NAME": "FENGYUN 2H",
    "OBJECT_ID": "2018-050A",
    "EPOCH": "2025-06-14T14:34:40.664640",
    "MEAN_MOTION": 1.00267649,
    "ECCENTRICITY": 8.76e-05,
    "INCLINATION": 2.0832,
    "RA_OF_ASC_NODE": 83.4701,
    "ARG_OF_PERICENTER": 89.2387,
    "MEAN_ANOMALY": 28.1106,
    "EPHEMERIS_TYPE": 0,
    "CLASSIFICATION_TYPE": "U",
    "NORAD_CAT_ID": 43491,
    "ELEMENT_SET_NO": 999,
    "REV_AT_EPOCH": 2575,
    "BSTAR": 0,
    "MEAN_MOTION_DOT": -1.13e-06,
    "MEAN_MOTION_DDOT": 0
  },
  {
    "OBJECT_NAME": "METOP-C",
    "OBJECT_ID": "2018-087A",
    "EPOCH": "2025-06-14T17:05:55.833792",
    "MEAN_MOTION": 14.21488072,
    "ECCENTRICITY": 0.0002086,
    "INCLINATION": 98.7152,
    "RA_OF_ASC_NODE": 225.9808,
    "ARG_OF_PERICENTER": 124.5746,
    "MEAN_ANOMALY": 235.5628,
    "EPHEMERIS_TYPE": 0,
    "CLASSIFICATION_TYPE": "U",
    "NORAD_CAT_ID": 43689,
    "ELEMENT_SET_NO": 999,
    "REV_AT_EPOCH": 34262,
    "BSTAR": 7.4225e-05,
    "MEAN_MOTION_DOT": 1.19e-06,
    "MEAN_MOTION_DDOT": 0
  },
  {
    "OBJECT_NAME": "GEO-KOMPSAT-2A",
    "OBJECT_ID": "2018-100A",
    "EPOCH": "2025-06-14T16:55:27.493248",
    "MEAN_MOTION": 1.00271445,
    "ECCENTRICITY": 0.0002423,
    "INCLINATION": 0.0538,
    "RA_OF_ASC_NODE": 139.4689,
    "ARG_OF_PERICENTER": 308.0096,
    "MEAN_ANOMALY": 197.8968,
    "EPHEMERIS_TYPE": 0,
    "CLASSIFICATION_TYPE": "U",
    "NORAD_CAT_ID": 43823,
    "ELEMENT_SET_NO": 999,
    "REV_AT_EPOCH": 2397,
    "BSTAR": 0,
    "MEAN_MOTION_DOT": -3.3e-06,
    "MEAN_MOTION_DDOT": 0
  },
  {
    "OBJECT_NAME": "METEOR-M2 2",
    "OBJECT_ID": "2019-038A",
    "EPOCH": "2025-06-14T21:46:31.545120",
    "MEAN_MOTION": 14.24210016,
    "ECCENTRICITY": 0.0001688,
    "INCLINATION": 98.8743,
    "RA_OF_ASC_NODE": 143.6406,
    "ARG_OF_PERICENTER": 40.0516,
    "MEAN_ANOMALY": 320.0787,
    "EPHEMERIS_TYPE": 0,
    "CLASSIFICATION_TYPE": "U",
    "NORAD_CAT_ID": 44387,
    "ELEMENT_SET_NO": 999,
    "REV_AT_EPOCH": 30901,
    "BSTAR": 4.6637e-05,
    "MEAN_MOTION_DOT": 6.2e-07,
    "MEAN_MOTION_DDOT": 0
  },
  {
    "OBJECT_NAME": "ARKTIKA-M 1",
    "OBJECT_ID": "2021-016A",
    "EPOCH": "2025-06-14T03:22:37.745760",
    "MEAN_MOTION": 2.00593735,
    "ECCENTRICITY": 0.7109281,
    "INCLINATION": 63.1486,
    "RA_OF_ASC_NODE": 108.0773,
    "ARG_OF_PERICENTER": 268.6417,
    "MEAN_ANOMALY": 16.562,
    "EPHEMERIS_TYPE": 0,
    "CLASSIFICATION_TYPE": "U",
    "NORAD_CAT_ID": 47719,
    "ELEMENT_SET_NO": 999,
    "REV_AT_EPOCH": 3140,
    "BSTAR": 0,
    "MEAN_MOTION_DOT": 1.1e-07,
    "MEAN_MOTION_DDOT": 0
  }
]