CYGFM04                 
1 41885U 16078B   25165.27364699  .00015793  00000+0  35153-3 0  9997
2 41885  34.9353 124.2173 0009857 304.4039  55.5748 15.42681262471842
CYGFM02                 
1 41886U 16078C   25165.27627217  .00016464  00000+0  35594-3 0  9991
2 41886  34.9440 124.4402 0011650 300.3395  59.6173 15.43516894471959
CYGFM01                 
1 41887U 16078D   25165.36865379  .00013739  00000+0  32217-3 0  9996
2 41887  34.9431 148.0465 0010477 274.2578  85.6944 15.41139964471658
CYGFM08                 
1 41888U 16078E   25165.61036652  .00013498  00000+0  30668-3 0  9999
2 41888  34.9462 131.2618 0012164 298.5624  61.3871 15.42066020471904
CYGFM07                 
1 41890U 16078G   25165.29334860  .00015725  00000+0  35066-3 0  9990
2 41890  34.9481 123.3191 0010052 310.7860  49.1987 15.42627624471869
CYGFM03                 
1 41891U 16078H   25165.29948802  .00015086  00000+0  33923-3 0  9998
2 41891  34.9434 124.9070 0009391 296.6579  63.3178 15.42390592471843
FENGYUN 3D              
1 43010U 17072A   25165.74736165  .00000070  00000+0  54959-4 0  9995
2 43010  98.9624 129.6302 0002251  48.4603 311.6765 14.19631504392856
NOAA 20 (JPSS-1)        
1 43013U 17073A   25165.84355327  .00000067  00000+0  52571-4 0  9991
2 43013  98.7418 104.3525 0000192  21.1348 338.9836 14.19544212392356
GOES 17                 
1 43226U 18022A   25164.84265192 -.00000086  00000+0  00000+0 0  9998
2 43226   0.0279 213.9012 0002223 259.7735 347.8196  1.00322278 26733
FENGYUN 2H              
1 43491U 18050A   25165.60741510 -.00000113  00000+0  00000+0 0  9992
2 43491   2.0832  83.4701 0000876  89.2387  28.1106  1.00267649 25751
METOP-C                 
1 43689U 18087A   25165.71245178  .00000119  00000+0  74225-4 0  9992
2 43689  98.7152 225.9808 0002086 124.5746 235.5628 14.21488072342628
GEO-KOMPSAT-2A          
1 43823U 18100A   25165.70517932 -.00000330  00000+0  00000+0 0  9998
2 43823   0.0538 139.4689 0002423 308.0096 197.8968  1.00271445 23978
METEOR-M2 2             
1 44387U 19038A   25165.90730955  .00000062  00000+0  46637-4 0  9991
2 44387  98.8743 143.6406 0001688  40.0516 320.0787 14.24210016309011
ARKTIKA-M 1             
1 47719U 21016A   25165.14071465  .00000011  00000+0  00000+0 0  9995
2 47719  63.1486 108.0773 7109281 268.6417  16.5620  2.00593735 31408
